{
  "type": "FeatureCollection",
  "features": [
    {
      "type": "Feature",
      "properties": {
        "norad_id": 66835,
        "name": "STARLINK-35890",
        "group": "last-30-days",
        "lat": -64.01082155767506,
        "lon": 136.16733414737706,
        "alt_km": 389.92295378086146,
        "timestamp": "2025-12-17T19:34:06.801600+00:00",
        "meta_object_name": "STARLINK-35890",
        "meta_object_id": "2025-280Q",
        "meta_epoch": "2025-12-17T08:00:04.999680",
        "meta_mean_motion": 15.62753322,
        "meta_eccentricity": 0.00036671,
        "meta_inclination": 69.9994,
        "meta_ra_of_asc_node": 185.8511,
        "meta_arg_of_pericenter": 273.3097,
        "meta_mean_anomaly": 184.7561,
        "meta_ephemeris_type": 0,
        "meta_classification_type": "U",
        "meta_norad_cat_id": 66835,
        "meta_element_set_no": 999,
        "meta_rev_at_epoch": 363,
        "meta_bstar": -0.024310636,
        "meta_mean_motion_dot": -0.01938051,
        "meta_mean_motion_ddot": 0,
        "tle_line1": "1 66835U 25280Q   25351.33339120 -.01938051  00000+0 -24311-1 0  9995",
        "tle_line2": "2 66835  69.9994 185.8511 0003667 273.3097 184.7561 15.62753322  3638"
      },
      "geometry": {
        "type": "Point",
        "coordinates": [
          136.16733414737706,
          -64.01082155767506
        ]
      }
    },
    {
      "type": "Feature",
      "properties": {
        "norad_id": 66836,
        "name": "STARLINK-35838",
        "group": "last-30-days",
        "lat": -62.77611457937501,
        "lon": 139.43730872382432,
        "alt_km": 389.9053962680946,
        "timestamp": "2025-12-17T19:34:06.801610+00:00",
        "meta_object_name": "STARLINK-35838",
        "meta_object_id": "2025-280R",
        "meta_epoch": "2025-12-17T08:00:04.999680",
        "meta_mean_motion": 15.62749474,
        "meta_eccentricity": 0.00036784,
        "meta_inclination": 69.9996,
        "meta_ra_of_asc_node": 185.8484,
        "meta_arg_of_pericenter": 273.2452,
        "meta_mean_anomaly": 186.7384,
        "meta_ephemeris_type": 0,
        "meta_classification_type": "U",
        "meta_norad_cat_id": 66836,
        "meta_element_set_no": 999,
        "meta_rev_at_epoch": 363,
        "meta_bstar": -0.024206764,
        "meta_mean_motion_dot": -0.01930483,
        "meta_mean_motion_ddot": 0,
        "tle_line1": "1 66836U 25280R   25351.33339120 -.01930483  00000+0 -24207-1 0  9991",
        "tle_line2": "2 66836  69.9996 185.8484 0003678 273.2452 186.7384 15.62749474  3634"
      },
      "geometry": {
        "type": "Point",
        "coordinates": [
          139.43730872382432,
          -62.77611457937501
        ]
      }
    },
    {
      "type": "Feature",
      "properties": {
        "norad_id": 66837,
        "name": "STARLINK-35729",
        "group": "last-30-days",
        "lat": -61.47329524827029,
        "lon": 142.43079613386925,
        "alt_km": 389.888488724896,
        "timestamp": "2025-12-17T19:34:06.801784+00:00",
        "meta_object_name": "STARLINK-35729",
        "meta_object_id": "2025-280S",
        "meta_epoch": "2025-12-17T08:00:04.999680",
        "meta_mean_motion": 15.62746462,
        "meta_eccentricity": 0.00036569,
        "meta_inclination": 69.9989,
        "meta_ra_of_asc_node": 185.8457,
        "meta_arg_of_pericenter": 275.3141,
        "meta_mean_anomaly": 186.5866,
        "meta_ephemeris_type": 0,
        "meta_classification_type": "U",
        "meta_norad_cat_id": 66837,
        "meta_element_set_no": 999,
        "meta_rev_at_epoch": 363,
        "meta_bstar": -0.024138328,
        "meta_mean_motion_dot": -0.01925437,
        "meta_mean_motion_ddot": 0,
        "tle_line1": "1 66837U 25280S   25351.33339120 -.01925437  00000+0 -24138-1 0  9998",
        "tle_line2": "2 66837  69.9989 185.8457 0003656 275.3141 186.5866 15.62746462  3638"
      },
      "geometry": {
        "type": "Point",
        "coordinates": [
          142.43079613386925,
          -61.47329524827029
        ]
      }
    },
    {
      "type": "Feature",
      "properties": {
        "norad_id": 66838,
        "name": "STARLINK-35886",
        "group": "last-30-days",
        "lat": -58.69512701053376,
        "lon": 147.70782803583288,
        "alt_km": 389.96952527910616,
        "timestamp": "2025-12-17T19:34:06.801798+00:00",
        "meta_object_name": "STARLINK-35886",
        "meta_object_id": "2025-280T",
        "meta_epoch": "2025-12-17T08:00:04.999680",
        "meta_mean_motion": 15.6275108,
        "meta_eccentricity": 0.00035736,
        "meta_inclination": 69.9995,
        "meta_ra_of_asc_node": 185.8411,
        "meta_arg_of_pericenter": 274.4219,
        "meta_mean_anomaly": 191.3095,
        "meta_ephemeris_type": 0,
        "meta_classification_type": "U",
        "meta_norad_cat_id": 66838,
        "meta_element_set_no": 999,
        "meta_rev_at_epoch": 363,
        "meta_bstar": -0.024238455,
        "meta_mean_motion_dot": -0.0193273,
        "meta_mean_motion_ddot": 0,
        "tle_line1": "1 66838U 25280T   25351.33339120 -.01932730  00000+0 -24238-1 0  9994",
        "tle_line2": "2 66838  69.9995 185.8411 0003573 274.4219 191.3095 15.62751080  3630"
      },
      "geometry": {
        "type": "Point",
        "coordinates": [
          147.70782803583288,
          -58.69512701053376
        ]
      }
    },
    {
      "type": "Feature",
      "properties": {
        "norad_id": 66839,
        "name": "STARLINK-35717",
        "group": "last-30-days",
        "lat": -60.115592391331,
        "lon": 145.17091477364957,
        "alt_km": 390.17992719598624,
        "timestamp": "2025-12-17T19:34:06.801812+00:00",
        "meta_object_name": "STARLINK-35717",
        "meta_object_id": "2025-280U",
        "meta_epoch": "2025-12-17T06:00:00.999648",
        "meta_mean_motion": 15.63166322,
        "meta_eccentricity": 0.00037133,
        "meta_inclination": 69.999,
        "meta_ra_of_asc_node": 186.0757,
        "meta_arg_of_pericenter": 269.5063,
        "meta_mean_anomaly": 85.2879,
        "meta_ephemeris_type": 0,
        "meta_classification_type": "U",
        "meta_norad_cat_id": 66839,
        "meta_element_set_no": 999,
        "meta_rev_at_epoch": 362,
        "meta_bstar": -0.025031019,
        "meta_mean_motion_dot": -0.02017301,
        "meta_mean_motion_ddot": 0,
        "tle_line1": "1 66839U 25280U   25351.25001157 -.02017301  00000+0 -25031-1 0  9993",
        "tle_line2": "2 66839  69.9990 186.0757 0003713 269.5063  85.2879 15.63166322  3620"
      },
      "geometry": {
        "type": "Point",
        "coordinates": [
          145.17091477364957,
          -60.115592391331
        ]
      }
    },
    {
      "type": "Feature",
      "properties": {
        "norad_id": 66840,
        "name": "STARLINK-35837",
        "group": "last-30-days",
        "lat": -57.239663671760475,
        "lon": 150.02589026422393,
        "alt_km": 390.2730912856214,
        "timestamp": "2025-12-17T19:34:06.801855+00:00",
        "meta_object_name": "STARLINK-35837",
        "meta_object_id": "2025-280V",
        "meta_epoch": "2025-12-17T06:00:00.999648",
        "meta_mean_motion": 15.63165851,
        "meta_eccentricity": 0.00036041,
        "meta_inclination": 69.9992,
        "meta_ra_of_asc_node": 186.0718,
        "meta_arg_of_pericenter": 269.1452,
        "meta_mean_anomaly": 89.4813,
        "meta_ephemeris_type": 0,
        "meta_classification_type": "U",
        "meta_norad_cat_id": 66840,
        "meta_element_set_no": 999,
        "meta_rev_at_epoch": 362,
        "meta_bstar": -0.025030058,
        "meta_mean_motion_dot": -0.02017093,
        "meta_mean_motion_ddot": 0,
        "tle_line1": "1 66840U 25280V   25351.25001157 -.02017093  00000+0 -25030-1 0  9992",
        "tle_line2": "2 66840  69.9992 186.0718 0003604 269.1452  89.4813 15.63165851  3628"
      },
      "geometry": {
        "type": "Point",
        "coordinates": [
          150.02589026422393,
          -57.239663671760475
        ]
      }
    },
    {
      "type": "Feature",
      "properties": {
        "norad_id": 66841,
        "name": "STARLINK-35715",
        "group": "last-30-days",
        "lat": -55.730923118393584,
        "lon": 152.18353669803597,
        "alt_km": 389.8616464562292,
        "timestamp": "2025-12-17T19:34:06.801872+00:00",
        "meta_object_name": "STARLINK-35715",
        "meta_object_id": "2025-280W",
        "meta_epoch": "2025-12-17T08:00:04.999680",
        "meta_mean_motion": 15.6275024,
        "meta_eccentricity": 0.0003714,
        "meta_inclination": 69.9994,
        "meta_ra_of_asc_node": 185.837,
        "meta_arg_of_pericenter": 275.1871,
        "meta_mean_anomaly": 194.3775,
        "meta_ephemeris_type": 0,
        "meta_classification_type": "U",
        "meta_norad_cat_id": 66841,
        "meta_element_set_no": 999,
        "meta_rev_at_epoch": 363,
        "meta_bstar": -0.024211133,
        "meta_mean_motion_dot": -0.01930875,
        "meta_mean_motion_ddot": 0,
        "tle_line1": "1 66841U 25280W   25351.33339120 -.01930875  00000+0 -24211-1 0  9997",
        "tle_line2": "2 66841  69.9994 185.8370 0003714 275.1871 194.3775 15.62750240  3631"
      },
      "geometry": {
        "type": "Point",
        "coordinates": [
          152.18353669803597,
          -55.730923118393584
        ]
      }
    }
  ]
}